STARLINK-36318          
1 68048U 26041J   26076.91670139 -.00054110  00000+0 -35066-3 0  9991
2 68048  53.1600  20.9395 0001238 118.2295  78.1178 15.75264925  3699
STARLINK-36885          
1 68049U 26041K   26076.91670139 -.00089044  00000+0 -58109-3 0  9999
2 68049  53.1599  20.9356 0001345 124.6560  73.5343 15.75306132  3699
STARLINK-36945          
1 68050U 26041L   26076.93627253  .00122538  00000+0  61490-3 0  9993
2 68050  53.1594  20.7344 0000891  98.1326 261.9798 15.80897883  2523
STARLINK-35911          
1 68051U 26041M   26076.93477191  .00150425  00000+0  75131-3 0  9991
2 68051  53.1595  20.7250 0001544  78.8046 281.3150 15.80905934  2526
STARLINK-35808          
1 68052U 26041N   26076.93401965  .00157461  00000+0  78505-3 0  9993
2 68052  53.1594  20.7193 0001680 118.2638 241.8554 15.80922337  2524
STARLINK-36919          
1 68053U 26041P   26076.93326555  .00241813  00000+0  11907-2 0  9992
2 68053  53.1595  20.7133 0000754 142.9969 217.1106 15.80944529  2528
STARLINK-36924          
1 68054U 26041Q   26076.91670139  .00020453  00000+0  13730-3 0  9993
2 68054  53.1601  20.8865 0001192  79.9398 142.1590 15.75233941  3698
STARLINK-35998          
1 68055U 26041R   26076.93251878  .00236509  00000+0  11665-2 0  9996
2 68055  53.1593  20.7092 0000976  95.2589 264.8546 15.80924688  2527
STARLINK-36845          
1 68056U 26041S   26076.93101860  .00211031  00000+0  10440-2 0  9995
2 68056  53.1594  20.6982 0001223 127.8964 232.2170 15.80930337  2521
STARLINK-36954          
1 68057U 26041T   26076.91670139 -.00081786  00000+0 -53331-3 0  9995
2 68057  53.1598  20.8817 0001266 137.0195  86.9252 15.75290197  3692
STARLINK-36899          
1 68058U 26041U   26076.91670139  .00022493  00000+0  15080-3 0  9993
2 68058  53.1600  20.8324 0001026 100.4056 147.5167 15.75193876  3699
STARLINK-36917          
1 68059U 26041V   26076.92882334 -.00509867  00000+0 -27978-2 0  9992
2 68059  53.1593  20.6836 0000977 145.2998 214.8088 15.80383176  2524
STARLINK-36959          
1 68060U 26041W   26076.91670139  .00055810  00000+0  36613-3 0  9990
2 68060  53.1599  20.7790 0001044 110.4994 163.1084 15.75220816  3694
STARLINK-36915          
1 68061U 26041X   26076.92726658  .00202212  00000+0  10016-2 0  9998
2 68061  53.1591  20.6723 0000937 122.4010 237.7104 15.80930829  2524
STARLINK-36952          
1 68062U 26041Y   26076.91670139  .00041695  00000+0  27494-3 0  9995
2 68062  53.1600  20.8286 0001047  84.6466 165.0711 15.75228691  3696
STARLINK-37000          
1 68063U 26041Z   26076.92576648  .00205485  00000+0  10171-2 0  9999
2 68063  53.1594  20.6624 0001210  71.2499 288.8655 15.80936761  2525
