[{"OBJECT_NAME":"STARLINK-36318","OBJECT_ID":"2026-041J","EPOCH":"2026-03-17T22:00:03.000096","MEAN_MOTION":15.75264925,"ECCENTRICITY":0.00012381,"INCLINATION":53.16,"RA_OF_ASC_NODE":20.9395,"ARG_OF_PERICENTER":118.2295,"MEAN_ANOMALY":78.1178,"EPHEMERIS_TYPE":0,"CLASSIFICATION_TYPE":"U","NORAD_CAT_ID":68048,"ELEMENT_SET_NO":999,"REV_AT_EPOCH":369,"BSTAR":-0.00035066147,"MEAN_MOTION_DOT":-0.0005411,"MEAN_MOTION_DDOT":0},{"OBJECT_NAME":"STARLINK-36885","OBJECT_ID":"2026-041K","EPOCH":"2026-03-17T22:00:03.000096","MEAN_MOTION":15.75306132,"ECCENTRICITY":0.00013454,"INCLINATION":53.1599,"RA_OF_ASC_NODE":20.9356,"ARG_OF_PERICENTER":124.656,"MEAN_ANOMALY":73.5343,"EPHEMERIS_TYPE":0,"CLASSIFICATION_TYPE":"U","NORAD_CAT_ID":68049,"ELEMENT_SET_NO":999,"REV_AT_EPOCH":369,"BSTAR":-0.00058109352,"MEAN_MOTION_DOT":-0.00089044,"MEAN_MOTION_DDOT":0},{"OBJECT_NAME":"STARLINK-36945","OBJECT_ID":"2026-041L","EPOCH":"2026-03-17T22:28:13.946592","MEAN_MOTION":15.80897883,"ECCENTRICITY":8.916e-5,"INCLINATION":53.1594,"RA_OF_ASC_NODE":20.7344,"ARG_OF_PERICENTER":98.1326,"MEAN_ANOMALY":261.9798,"EPHEMERIS_TYPE":0,"CLASSIFICATION_TYPE":"U","NORAD_CAT_ID":68050,"ELEMENT_SET_NO":999,"REV_AT_EPOCH":252,"BSTAR":0.00061490066,"MEAN_MOTION_DOT":0.00122538,"MEAN_MOTION_DDOT":0},{"OBJECT_NAME":"STARLINK-35911","OBJECT_ID":"2026-041M","EPOCH":"2026-03-17T22:26:04.293024","MEAN_MOTION":15.80905934,"ECCENTRICITY":0.00015441,"INCLINATION":53.1595,"RA_OF_ASC_NODE":20.725,"ARG_OF_PERICENTER":78.8046,"MEAN_ANOMALY":281.315,"EPHEMERIS_TYPE":0,"CLASSIFICATION_TYPE":"U","NORAD_CAT_ID":68051,"ELEMENT_SET_NO":999,"REV_AT_EPOCH":252,"BSTAR":0.00075131121,"MEAN_MOTION_DOT":0.00150425,"MEAN_MOTION_DDOT":0},{"OBJECT_NAME":"STARLINK-35808","OBJECT_ID":"2026-041N","EPOCH":"2026-03-17T22:24:59.297760","MEAN_MOTION":15.80922337,"ECCENTRICITY":0.00016809,"INCLINATION":53.1594,"RA_OF_ASC_NODE":20.7193,"ARG_OF_PERICENTER":118.2638,"MEAN_ANOMALY":241.8554,"EPHEMERIS_TYPE":0,"CLASSIFICATION_TYPE":"U","NORAD_CAT_ID":68052,"ELEMENT_SET_NO":999,"REV_AT_EPOCH":252,"BSTAR":0.00078505077,"MEAN_MOTION_DOT":0.00157461,"MEAN_MOTION_DDOT":0},{"OBJECT_NAME":"STARLINK-36919","OBJECT_ID":"2026-041P","EPOCH":"2026-03-17T22:23:54.143520","MEAN_MOTION":15.80944529,"ECCENTRICITY":7.542e-5,"INCLINATION":53.1595,"RA_OF_ASC_NODE":20.7133,"ARG_OF_PERICENTER":142.9969,"MEAN_ANOMALY":217.1106,"EPHEMERIS_TYPE":0,"CLASSIFICATION_TYPE":"U","NORAD_CAT_ID":68053,"ELEMENT_SET_NO":999,"REV_AT_EPOCH":252,"BSTAR":0.0011907473,"MEAN_MOTION_DOT":0.00241813,"MEAN_MOTION_DDOT":0},{"OBJECT_NAME":"STARLINK-36924","OBJECT_ID":"2026-041Q","EPOCH":"2026-03-17T22:00:03.000096","MEAN_MOTION":15.75233941,"ECCENTRICITY":0.00011929,"INCLINATION":53.1601,"RA_OF_ASC_NODE":20.8865,"ARG_OF_PERICENTER":79.9398,"MEAN_ANOMALY":142.159,"EPHEMERIS_TYPE":0,"CLASSIFICATION_TYPE":"U","NORAD_CAT_ID":68054,"ELEMENT_SET_NO":999,"REV_AT_EPOCH":369,"BSTAR":0.00013730104,"MEAN_MOTION_DOT":0.00020453,"MEAN_MOTION_DDOT":0},{"OBJECT_NAME":"STARLINK-35998","OBJECT_ID":"2026-041R","EPOCH":"2026-03-17T22:22:49.622592","MEAN_MOTION":15.80924688,"ECCENTRICITY":9.766e-5,"INCLINATION":53.1593,"RA_OF_ASC_NODE":20.7092,"ARG_OF_PERICENTER":95.2589,"MEAN_ANOMALY":264.8546,"EPHEMERIS_TYPE":0,"CLASSIFICATION_TYPE":"U","NORAD_CAT_ID":68055,"ELEMENT_SET_NO":999,"REV_AT_EPOCH":252,"BSTAR":0.0011664989,"MEAN_MOTION_DOT":0.00236509,"MEAN_MOTION_DDOT":0},{"OBJECT_NAME":"STARLINK-36845","OBJECT_ID":"2026-041S","EPOCH":"2026-03-17T22:20:40.007040","MEAN_MOTION":15.80930337,"ECCENTRICITY":0.00012235,"INCLINATION":53.1594,"RA_OF_ASC_NODE":20.6982,"ARG_OF_PERICENTER":127.8964,"MEAN_ANOMALY":232.217,"EPHEMERIS_TYPE":0,"CLASSIFICATION_TYPE":"U","NORAD_CAT_ID":68056,"ELEMENT_SET_NO":999,"REV_AT_EPOCH":252,"BSTAR":0.0010440419,"MEAN_MOTION_DOT":0.00211031,"MEAN_MOTION_DDOT":0},{"OBJECT_NAME":"STARLINK-36954","OBJECT_ID":"2026-041T","EPOCH":"2026-03-17T22:00:03.000096","MEAN_MOTION":15.75290197,"ECCENTRICITY":0.00012662,"INCLINATION":53.1598,"RA_OF_ASC_NODE":20.8817,"ARG_OF_PERICENTER":137.0195,"MEAN_ANOMALY":86.9252,"EPHEMERIS_TYPE":0,"CLASSIFICATION_TYPE":"U","NORAD_CAT_ID":68057,"ELEMENT_SET_NO":999,"REV_AT_EPOCH":369,"BSTAR":-0.00053331105,"MEAN_MOTION_DOT":-0.00081786,"MEAN_MOTION_DDOT":0},{"OBJECT_NAME":"STARLINK-36899","OBJECT_ID":"2026-041U","EPOCH":"2026-03-17T22:00:03.000096","MEAN_MOTION":15.75193876,"ECCENTRICITY":0.00010264,"INCLINATION":53.16,"RA_OF_ASC_NODE":20.8324,"ARG_OF_PERICENTER":100.4056,"MEAN_ANOMALY":147.5167,"EPHEMERIS_TYPE":0,"CLASSIFICATION_TYPE":"U","NORAD_CAT_ID":68058,"ELEMENT_SET_NO":999,"REV_AT_EPOCH":369,"BSTAR":0.00015080193,"MEAN_MOTION_DOT":0.00022493,"MEAN_MOTION_DDOT":0},{"OBJECT_NAME":"STARLINK-36917","OBJECT_ID":"2026-041V","EPOCH":"2026-03-17T22:17:30.336576","MEAN_MOTION":15.80383176,"ECCENTRICITY":9.772e-5,"INCLINATION":53.1593,"RA_OF_ASC_NODE":20.6836,"ARG_OF_PERICENTER":145.2998,"MEAN_ANOMALY":214.8088,"EPHEMERIS_TYPE":0,"CLASSIFICATION_TYPE":"U","NORAD_CAT_ID":68059,"ELEMENT_SET_NO":999,"REV_AT_EPOCH":252,"BSTAR":-0.0027978403,"MEAN_MOTION_DOT":-0.00509867,"MEAN_MOTION_DDOT":0},{"OBJECT_NAME":"STARLINK-36959","OBJECT_ID":"2026-041W","EPOCH":"2026-03-17T22:00:03.000096","MEAN_MOTION":15.75220816,"ECCENTRICITY":0.0001044,"INCLINATION":53.1599,"RA_OF_ASC_NODE":20.779,"ARG_OF_PERICENTER":110.4994,"MEAN_ANOMALY":163.1084,"EPHEMERIS_TYPE":0,"CLASSIFICATION_TYPE":"U","NORAD_CAT_ID":68060,"ELEMENT_SET_NO":999,"REV_AT_EPOCH":369,"BSTAR":0.00036613488,"MEAN_MOTION_DOT":0.0005581,"MEAN_MOTION_DDOT":0},{"OBJECT_NAME":"STARLINK-36915","OBJECT_ID":"2026-041X","EPOCH":"2026-03-17T22:15:15.832512","MEAN_MOTION":15.80930829,"ECCENTRICITY":9.372e-5,"INCLINATION":53.1591,"RA_OF_ASC_NODE":20.6723,"ARG_OF_PERICENTER":122.401,"MEAN_ANOMALY":237.7104,"EPHEMERIS_TYPE":0,"CLASSIFICATION_TYPE":"U","NORAD_CAT_ID":68061,"ELEMENT_SET_NO":999,"REV_AT_EPOCH":252,"BSTAR":0.0010015629,"MEAN_MOTION_DOT":0.00202212,"MEAN_MOTION_DDOT":0},{"OBJECT_NAME":"STARLINK-36952","OBJECT_ID":"2026-041Y","EPOCH":"2026-03-17T22:00:03.000096","MEAN_MOTION":15.75228691,"ECCENTRICITY":0.00010472,"INCLINATION":53.16,"RA_OF_ASC_NODE":20.8286,"ARG_OF_PERICENTER":84.6466,"MEAN_ANOMALY":165.0711,"EPHEMERIS_TYPE":0,"CLASSIFICATION_TYPE":"U","NORAD_CAT_ID":68062,"ELEMENT_SET_NO":999,"REV_AT_EPOCH":369,"BSTAR":0.00027494416,"MEAN_MOTION_DOT":0.00041695,"MEAN_MOTION_DDOT":0},{"OBJECT_NAME":"STARLINK-37000","OBJECT_ID":"2026-041Z","EPOCH":"2026-03-17T22:13:06.223872","MEAN_MOTION":15.80936761,"ECCENTRICITY":0.00012101,"INCLINATION":53.1594,"RA_OF_ASC_NODE":20.6624,"ARG_OF_PERICENTER":71.2499,"MEAN_ANOMALY":288.8655,"EPHEMERIS_TYPE":0,"CLASSIFICATION_TYPE":"U","NORAD_CAT_ID":68063,"ELEMENT_SET_NO":999,"REV_AT_EPOCH":252,"BSTAR":0.0010170543,"MEAN_MOTION_DOT":0.00205485,"MEAN_MOTION_DDOT":0}]
